CZ-4B R/B               
1 27432U 02024C   24191.09057792  .00000083  00000+0  66432-4 0  9997
2 27432  98.9736 233.5161 0049456 309.7827 103.7540 14.14333786143285
MIDORI II (ADEOS-II)    
1 27597U 02056A   24190.82277425  .00000453  00000+0  19892-3 0  9999
2 27597  98.6923 137.4223 0001332  41.1124 319.0157 14.28401838123341
H-2A R/B                
1 27601U 02056E   24190.94317307  .00000365  00000+0  14468-3 0  9998
2 27601  98.2308 166.9354 0071228 175.5558 244.9698 14.32855139126909
CZ-4B R/B               
1 28059U 03049C   24191.48519004  .00000543  00000+0  13937-3 0  9995
2 28059  98.6118 154.4860 0047902 288.6387  70.9611 14.53834360 98166
CZ-2C R/B               
1 28222U 04012C   24190.92368011  .00013129  00000+0  49342-3 0  9999
2 28222  97.8019 204.8698 0032545 336.8366  23.1402 15.26805985110411
SL-16 R/B               
1 28353U 04021B   24191.08744228 -.00000227  00000+0 -93674-4 0  9995
2 28353  71.0009  69.5454 0007321 252.0180 108.0145 14.14424201 36779
CZ-4B R/B               
1 28415U 04035C   24190.85327885  .00006612  00000+0  33944-3 0  9994
2 28415  97.4212 224.0371 0040745 309.4049  50.3579 15.16117262 87247
CZ-2C R/B               
1 28480U 04046B   24191.46625394  .00000218  00000+0  96455-4 0  9995
2 28480  98.1628 134.1976 0141097 152.9937 207.8678 14.26396276 21778
ARIANE 5 R/B            
1 28499U 04049H   24191.46681140  .00001793  00000+0  21485-3 0  9998
2 28499  98.1871 329.9498 0088538 160.2137 200.2546 14.82666497 55590
CZ-2D R/B               
1 28738U 05024B   24191.02874450  .00011975  00000+0  45710-3 0  9998
2 28738  97.3628 189.2828 0010621  73.5780 286.6625 15.26748834 46006
SUZAKU (ASTRO-EII)      
1 28773U 05025A   24190.87621785  .00038628  00000+0  71539-3 0  9993
2 28773  31.3882 351.8966 0001570 103.8147 256.2684 15.47768932 50357
ALOS (DAICHI)           
1 28931U 06002A   24191.47772743  .00001927  00000+0  36062-3 0  9997
2 28931  98.0375 144.0631 0002613  82.6248 277.5253 14.65946673984618
H-2A R/B                
1 28932U 06002B   24191.23402434  .00006699  00000+0  49430-3 0  9993
2 28932  98.2010 284.1840 0071381 131.0561 229.6860 15.01587028  2743
RESURS-DK 1             
1 29228U 06021A   24190.91904522  .00003051  00000+0  20744-3 0  9998
2 29228  69.9359   6.0067 0005880 309.1915  50.8725 15.07456237995598
GENESIS 1               
1 29252U 06029A   24191.45886728  .00018499  00000+0  46524-3 0  9996
2 29252  64.5154  90.8379 0026215 320.1056  39.8150 15.39695363994082
CZ-4B R/B               
1 29507U 06046C   24191.51963054  .00005105  00000+0  33095-3 0  9992
2 29507  97.6408 227.4437 0039790 198.8990 161.0763 15.07899264968132
CZ-2C R/B               
1 31114U 07010B   24190.89109561  .00000207  00000+0  11531-3 0  9995
2 31114  98.3356 325.6930 0058184 265.1191  94.3342 14.19807454893317
COSMO-SKYMED 1          
1 31598U 07023A   24191.48185679  .00000771  00000+0  10347-3 0  9995
2 31598  97.8872  14.2983 0001561  85.2286 274.9105 14.82139596924494
GENESIS 2               
1 31789U 07028A   24190.93792789  .00018460  00000+0  49545-3 0  9993
2 31789  64.4895 138.3540 0019634 226.3848 133.5657 15.37857290940769
COSMOS 2428             
1 31792U 07029A   24190.93682805 -.00000212  00000+0 -88278-4 0  9990
2 31792  70.9389  41.1359 0009422   7.4830 352.6430 14.12707710878110
SL-16 R/B               
1 31793U 07029B   24190.94897168 -.00000239  00000+0 -99536-4 0  9990
2 31793  70.9760  11.8437 0002445 260.4760 208.6927 14.14637775879270
KORONAS-FOTON           
1 33504U 09003A   24191.22341230  .00007152  00000+0  27050-3 0  9992
2 33504  82.4364 180.4932 0016471 157.3321 202.8649 15.26653756852510
CZ-2C R/B               
1 37731U 11030B   24190.92290748  .00001548  00000+0  21709-3 0  9992
2 37731  97.7648 154.0200 0056272 168.1544 257.0111 14.77790886700064
H-2A R/B                
1 38341U 12025E   24190.78473562  .00003273  00000+0  34813-3 0  9993
2 38341  98.4224 103.6848 0051420 136.7840 223.7427 14.88779584657401
CUSAT 2 & FALCON 9 R/B  
1 39271U 13055G   24190.89392210  .00052479 -45811-8  57037-3 0  9996
2 39271  80.9308  53.3270 0290100 233.6960 123.7170 15.25853619568682
SHIJIAN-16 (SJ-16)      
1 39358U 13057A   24191.55533413  .00002109  00000+0  22677-3 0  9998
2 39358  74.9726 253.8422 0016585 146.4067 213.8175 14.88966435580941
SL-4 R/B                
1 39679U 14021B   24190.86372665  .00010959  00000+0  40188-3 0  9998
2 39679  51.6077  26.2430 0135569  74.6797 286.9115 15.20267934563069
ALOS-2                  
1 39766U 14029A   24191.56429194  .00000632  00000+0  91472-4 0  9991
2 39766  97.9231 287.8857 0001588  98.8624 261.2767 14.79466927546986
SL-27 R/B               
1 40354U 14084B   24191.20337942  .00057927  00000+0  32208-3 0  9997
2 40354  74.7209 161.5611 0017695 294.9763  64.9631 15.78995489538017
YAOGAN-29               
1 41038U 15069A   24191.52883976  .00000658  00000+0  90361-4 0  9993
2 41038  98.0541 206.0707 0002485 128.7002 231.4433 14.81732638465778
ASTRO-H (HITOMI)        
1 41337U 16012A   24190.76771209  .00003543  00000+0  24402-3 0  9992
2 41337  31.0028 310.2288 0010915 352.0132   8.0330 15.03981771460275
HXMT (HUIYAN)           
1 42758U 17034A   24191.38956242  .00005077  00000+0  28003-3 0  9991
2 42758  43.0136 151.9285 0014996 293.7884  66.1390 15.14798851390226
CZ-2C R/B               
1 43521U 18054D   24190.69720362  .00011712  00000+0  38498-3 0  9990
2 43521  35.1452 340.1537 0057348 325.9290  33.7755 15.29130781334161
SAOCOM 1A               
1 43641U 18076A   24191.49046452  .00000634  00000+0  86266-4 0  9995
2 43641  97.8886  17.3920 0001376  90.0063 270.1308 14.82147097311271
H-2A R/B                
1 43682U 18084L   24190.82084246  .00008337  00000+0  43629-3 0  9991
2 43682  98.8523 281.8106 0043062 297.6257  62.0602 15.15364941312774
SAOCOM 1B               
1 46265U 20059A   24191.52171598  .00000644  00000+0  87404-4 0  9994
2 46265  97.8888  16.5159 0001391  88.1284 272.0088 14.82151381208679
CSS (TIANHE)            
1 48274U 21035A   24191.33982974  .00032835  00000+0  34335-3 0  9999
2 48274  41.4687 307.8940 0004165   0.2502 359.8340 15.63748828182569
COSMOS 2550             
1 48865U 21056A   24191.32631790  .00003048  00000+0  98390-4 0  9990
2 48865  67.1422  81.3367 0008468 269.8630  90.1554 15.33842350170177
2022-019U               
1 51842U 22019U   24191.53526174  .00377848  57681-4  10453-2 0  9997
2 51842  97.5060 300.7045 0011850 335.7862  24.2854 15.93714129132662
CZ-2C R/B               
1 52794U 22058K   24190.85458396  .00010338  00000+0  39952-3 0  9993
2 52794  50.1917 134.3523 0078674 215.8643 143.7018 15.23928994116424
XRISM                   
1 57800U 23137A   24190.83578857  .00003860  00000+0  28525-3 0  9994
2 57800  31.0017 234.7849 0009487  64.3438 295.8177 15.01453965 45868
SZ-17 MODULE            
1 59624U 23164C   24190.77197288  .00039564  00000+0  36084-3 0  9997
2 59624  41.4774 310.6008 0006176  33.0773 327.0454 15.67092601 10920
